METEOR-M 1              
1 35865U 09049A   17346.46413033  .00000003  00000-0  20199-4 0  9992
2 35865  98.4129   0.1214 0002399  16.4359 343.6896 14.22128744427446
